{
  "type": "FeatureCollection",
  "features": [
    {
      "type": "Feature",
      "properties": {
        "norad_id": 58701,
        "name": "TIANMU-1 16",
        "group": "weather",
        "lat": -82.41972014541255,
        "lon": -96.75270544284396,
        "alt_km": 497.9018099409177,
        "timestamp": "2025-12-08T03:50:06.649183+00:00",
        "meta_object_name": "TIANMU-1 16",
        "meta_object_id": "2024-004B",
        "meta_epoch": "2025-12-07T06:10:42.818592",
        "meta_mean_motion": 15.24322065,
        "meta_eccentricity": 0.00048215,
        "meta_inclination": 97.4565,
        "meta_ra_of_asc_node": 162.142,
        "meta_arg_of_pericenter": 319.6149,
        "meta_mean_anomaly": 40.4729,
        "meta_ephemeris_type": 0,
        "meta_classification_type": "U",
        "meta_norad_cat_id": 58701,
        "meta_element_set_no": 999,
        "meta_rev_at_epoch": 10651,
        "meta_bstar": 0.00045661588,
        "meta_mean_motion_dot": 0.00011104,
        "meta_mean_motion_ddot": 0,
        "tle_line1": "1 58701U 24004B   25341.25744003  .00011104  00000+0  45662-3 0  9993",
        "tle_line2": "2 58701  97.4565 162.1420 0004821 319.6149  40.4729 15.24322065106512"
      },
      "geometry": {
        "type": "Point",
        "coordinates": [
          -96.75270544284396,
          -82.41972014541255
        ]
      }
    },
    {
      "type": "Feature",
      "properties": {
        "norad_id": 58702,
        "name": "TIANMU-1 17",
        "group": "weather",
        "lat": -7.574141127762835,
        "lon": 164.4458316982547,
        "alt_km": 494.3049179226409,
        "timestamp": "2025-12-08T03:50:06.649192+00:00",
        "meta_object_name": "TIANMU-1 17",
        "meta_object_id": "2024-004C",
        "meta_epoch": "2025-12-07T05:48:45.639360",
        "meta_mean_motion": 15.2436733,
        "meta_eccentricity": 0.00040125,
        "meta_inclination": 97.4601,
        "meta_ra_of_asc_node": 162.5341,
        "meta_arg_of_pericenter": 324.0564,
        "meta_mean_anomaly": 36.0403,
        "meta_ephemeris_type": 0,
        "meta_classification_type": "U",
        "meta_norad_cat_id": 58702,
        "meta_element_set_no": 999,
        "meta_rev_at_epoch": 10650,
        "meta_bstar": 0.00043199317,
        "meta_mean_motion_dot": 0.00010514,
        "meta_mean_motion_ddot": 0,
        "tle_line1": "1 58702U 24004C   25341.24219490  .00010514  00000+0  43199-3 0  9997",
        "tle_line2": "2 58702  97.4601 162.5341 0004012 324.0564  36.0403 15.24367330106506"
      },
      "geometry": {
        "type": "Point",
        "coordinates": [
          164.4458316982547,
          -7.574141127762835
        ]
      }
    },
    {
      "type": "Feature",
      "properties": {
        "norad_id": 58703,
        "name": "TIANMU-1 18",
        "group": "weather",
        "lat": 80.54892118696891,
        "lon": 111.7043089644895,
        "alt_km": 486.4858510510894,
        "timestamp": "2025-12-08T03:50:06.649203+00:00",
        "meta_object_name": "TIANMU-1 18",
        "meta_object_id": "2024-004D",
        "meta_epoch": "2025-12-07T06:59:11.953248",
        "meta_mean_motion": 15.24358045,
        "meta_eccentricity": 0.00033599,
        "meta_inclination": 97.4617,
        "meta_ra_of_asc_node": 162.7769,
        "meta_arg_of_pericenter": 325.3328,
        "meta_mean_anomaly": 34.769,
        "meta_ephemeris_type": 0,
        "meta_classification_type": "U",
        "meta_norad_cat_id": 58703,
        "meta_element_set_no": 999,
        "meta_rev_at_epoch": 10651,
        "meta_bstar": 0.0004016156,
        "meta_mean_motion_dot": 9.765e-05,
        "meta_mean_motion_ddot": 0,
        "tle_line1": "1 58703U 24004D   25341.29111057  .00009765  00000+0  40162-3 0  9996",
        "tle_line2": "2 58703  97.4617 162.7769 0003359 325.3328  34.7690 15.24358045106512"
      },
      "geometry": {
        "type": "Point",
        "coordinates": [
          111.7043089644895,
          80.54892118696891
        ]
      }
    },
    {
      "type": "Feature",
      "properties": {
        "norad_id": 58990,
        "name": "INSAT-3DS",
        "group": "weather",
        "lat": -0.005382670941081459,
        "lon": -143.23620984194218,
        "alt_km": 35781.772081559175,
        "timestamp": "2025-12-08T03:50:06.649214+00:00",
        "meta_object_name": "INSAT-3DS",
        "meta_object_id": "2024-033A",
        "meta_epoch": "2025-12-07T03:45:11.753856",
        "meta_mean_motion": 1.00269709,
        "meta_eccentricity": 0.00017031,
        "meta_inclination": 0.0153,
        "meta_ra_of_asc_node": 84.809,
        "meta_arg_of_pericenter": 178.8494,
        "meta_mean_anomaly": 310.9152,
        "meta_ephemeris_type": 0,
        "meta_classification_type": "U",
        "meta_norad_cat_id": 58990,
        "meta_element_set_no": 999,
        "meta_rev_at_epoch": 4514,
        "meta_bstar": 0,
        "meta_mean_motion_dot": -1.51e-06,
        "meta_mean_motion_ddot": 0,
        "tle_line1": "1 58990U 24033A   25341.15638604 -.00000151  00000+0  00000+0 0  9997",
        "tle_line2": "2 58990   0.0153  84.8090 0001703 178.8494 310.9152  1.00269709 45142"
      },
      "geometry": {
        "type": "Point",
        "coordinates": [
          -143.23620984194218,
          -0.005382670941081459
        ]
      }
    },
    {
      "type": "Feature",
      "properties": {
        "norad_id": 59051,
        "name": "METEOR-M2 4",
        "group": "weather",
        "lat": 41.16891619123303,
        "lon": 126.81382405188928,
        "alt_km": 817.0722258449878,
        "timestamp": "2025-12-08T03:50:06.649225+00:00",
        "meta_object_name": "METEOR-M2 4",
        "meta_object_id": "2024-039A",
        "meta_epoch": "2025-12-07T06:55:45.431328",
        "meta_mean_motion": 14.22399992,
        "meta_eccentricity": 0.00073449,
        "meta_inclination": 98.676,
        "meta_ra_of_asc_node": 298.2833,
        "meta_arg_of_pericenter": 14.0004,
        "meta_mean_anomaly": 346.1376,
        "meta_ephemeris_type": 0,
        "meta_classification_type": "U",
        "meta_norad_cat_id": 59051,
        "meta_element_set_no": 999,
        "meta_rev_at_epoch": 9198,
        "meta_bstar": 6.3162441e-05,
        "meta_mean_motion_dot": 9.7e-07,
        "meta_mean_motion_ddot": 0,
        "tle_line1": "1 59051U 24039A   25341.28872027  .00000097  00000+0  63162-4 0  9996",
        "tle_line2": "2 59051  98.6760 298.2833 0007344  14.0004 346.1376 14.22399992 91987"
      },
      "geometry": {
        "type": "Point",
        "coordinates": [
          126.81382405188928,
          41.16891619123303
        ]
      }
    },
    {
      "type": "Feature",
      "properties": {
        "norad_id": 60133,
        "name": "GOES 19",
        "group": "weather",
        "lat": 0.004022116824617212,
        "lon": 59.517205156895265,
        "alt_km": 35789.42827334153,
        "timestamp": "2025-12-08T03:50:06.649236+00:00",
        "meta_object_name": "GOES 19",
        "meta_object_id": "2024-119A",
        "meta_epoch": "2025-12-07T06:25:41.380320",
        "meta_mean_motion": 1.00270034,
        "meta_eccentricity": 0.00014968,
        "meta_inclination": 0.0092,
        "meta_ra_of_asc_node": 88.2406,
        "meta_arg_of_pericenter": 215.4395,
        "meta_mean_anomaly": 153.8489,
        "meta_ephemeris_type": 0,
        "meta_classification_type": "U",
        "meta_norad_cat_id": 60133,
        "meta_element_set_no": 999,
        "meta_rev_at_epoch": 504,
        "meta_bstar": 0,
        "meta_mean_motion_dot": -2.44e-06,
        "meta_mean_motion_ddot": 0,
        "tle_line1": "1 60133U 24119A   25341.26784005 -.00000244  00000+0  00000+0 0  9996",
        "tle_line2": "2 60133   0.0092  88.2406 0001496 215.4395 153.8489  1.00270034  5047"
      },
      "geometry": {
        "type": "Point",
        "coordinates": [
          59.517205156895265,
          0.004022116824617212
        ]
      }
    },
    {
      "type": "Feature",
      "properties": {
        "norad_id": 65815,
        "name": "FENGYUN 3H",
        "group": "weather",
        "lat": 57.031183725351596,
        "lon": -91.73598113686184,
        "alt_km": 819.755165839887,
        "timestamp": "2025-12-08T03:50:06.649249+00:00",
        "meta_object_name": "FENGYUN 3H",
        "meta_object_id": "2025-219A",
        "meta_epoch": "2025-12-07T07:16:05.433888",
        "meta_mean_motion": 14.19902374,
        "meta_eccentricity": 6.146e-05,
        "meta_inclination": 98.6577,
        "meta_ra_of_asc_node": 281.0115,
        "meta_arg_of_pericenter": 79.8095,
        "meta_mean_anomaly": 280.3151,
        "meta_ephemeris_type": 0,
        "meta_classification_type": "U",
        "meta_norad_cat_id": 65815,
        "meta_element_set_no": 999,
        "meta_rev_at_epoch": 1015,
        "meta_bstar": 0.00012186109,
        "meta_mean_motion_dot": 2.15e-06,
        "meta_mean_motion_ddot": 0,
        "tle_line1": "1 65815U 25219A   25341.30284067  .00000215  00000+0  12186-3 0  9997",
        "tle_line2": "2 65815  98.6577 281.0115 0000614  79.8095 280.3151 14.19902374 10153"
      },
      "geometry": {
        "type": "Point",
        "coordinates": [
          -91.73598113686184,
          57.031183725351596
        ]
      }
    }
  ]
}